STARLINK-31192          
1 58794U 24012H   26068.30699284 -.00004968  00000+0 -17110-3 0  9996
2 58794  43.0023 167.7303 0001036 197.5270 162.5546 15.27584226121178
HERMES-2                
1 63243U 25052AK  26068.92847372  .00009456  00000+0  34839-3 0  9999
2 63243  97.4004 324.4926 0006340  99.4160 260.7796 15.28021069 54859
